[
    {
        "Altitude(m)": 558893.8367558677,
        "Argument of Periapsis(deg)": 0.006622991110713501,
        "Eccentricity": 0.0,
        "Inclination(deg)": 53.0,
        "Latitude(deg)": 48.73683380797792,
        "Longitude(deg)": -149.4406455446567,
        "Mean Anomaly(deg)": 110.09159286757756,
        "RAAN(deg)": 189.99014336852804,
        "Satellite Name": "Starlink Shell 1 842",
        "Satellite Number": 842,
        "Semi-Major Axis(m)": 6931778.249405717,
        "Time(s)": 190
    },
    {
        "Altitude(m)": 558833.5155697138,
        "Argument of Periapsis(deg)": 0.0069715695902247375,
        "Eccentricity": 0.0,
        "Inclination(deg)": 53.0,
        "Latitude(deg)": 48.47303801242736,
        "Longitude(deg)": -148.62398434671755,
        "Mean Anomaly(deg)": 110.71842407113431,
        "RAAN(deg)": 189.98962459845052,
        "Satellite Name": "Starlink Shell 1 842",
        "Satellite Number": 842,
        "Semi-Major Axis(m)": 6931778.249405717,
        "Time(s)": 200
    },
    {
        "Altitude(m)": 558771.7730437212,
        "Argument of Periapsis(deg)": 0.007320148069735974,
        "Eccentricity": 0.0,
        "Inclination(deg)": 53.0,
        "Latitude(deg)": 48.20290312314497,
        "Longitude(deg)": -147.81626964534692,
        "Mean Anomaly(deg)": 111.34525527469103,
        "RAAN(deg)": 189.98910582837308,
        "Satellite Name": "Starlink Shell 1 842",
        "Satellite Number": 842,
        "Semi-Major Axis(m)": 6931778.249405717,
        "Time(s)": 210
    },
    {
        "Altitude(m)": 558708.6470825353,
        "Argument of Periapsis(deg)": 0.007668726549247212,
        "Eccentricity": 0.0,
        "Inclination(deg)": 53.0,
        "Latitude(deg)": 47.92655360155367,
        "Longitude(deg)": -147.01752987352612,
        "Mean Anomaly(deg)": 111.9720864782477,
        "RAAN(deg)": 189.98858705829562,
        "Satellite Name": "Starlink Shell 1 842",
        "Satellite Number": 842,
        "Semi-Major Axis(m)": 6931778.249405717,
        "Time(s)": 220
    },
    {
        "Altitude(m)": 558644.1764953393,
        "Argument of Periapsis(deg)": 0.00801730502875845,
        "Eccentricity": 0.0,
        "Inclination(deg)": 53.0,
        "Latitude(deg)": 47.644113533425475,
        "Longitude(deg)": -146.22778167031075,
        "Mean Anomaly(deg)": 112.59891768180445,
        "RAAN(deg)": 189.98806828821813,
        "Satellite Name": "Starlink Shell 1 842",
        "Satellite Number": 842,
        "Semi-Major Axis(m)": 6931778.249405717,
        "Time(s)": 230
    },
    {
        "Altitude(m)": 558578.4009766348,
        "Argument of Periapsis(deg)": 0.008365883508269684,
        "Eccentricity": 0.0,
        "Inclination(deg)": 53.0,
        "Latitude(deg)": 47.35570646464783,
        "Longitude(deg)": -145.44702992809707,
        "Mean Anomaly(deg)": 113.22574888536111,
        "RAAN(deg)": 189.98754951814067,
        "Satellite Name": "Starlink Shell 1 842",
        "Satellite Number": 842,
        "Semi-Major Axis(m)": 6931778.249405717,
        "Time(s)": 240
    },
    {
        "Altitude(m)": 558511.3610866254,
        "Argument of Periapsis(deg)": 0.008714461987780921,
        "Eccentricity": 0.0,
        "Inclination(deg)": 53.0,
        "Latitude(deg)": 47.06145524819196,
        "Longitude(deg)": -144.6752693582923,
        "Mean Anomaly(deg)": 113.85258008891785,
        "RAAN(deg)": 189.9870307480632,
        "Satellite Name": "Starlink Shell 1 842",
        "Satellite Number": 842,
        "Semi-Major Axis(m)": 6931778.249405717,
        "Time(s)": 250
    },
    {
        "Altitude(m)": 558443.0982311268,
        "Argument of Periapsis(deg)": 0.009063040467292158,
        "Eccentricity": 0.0,
        "Inclination(deg)": 53.0,
        "Latitude(deg)": 46.761481902154294,
        "Longitude(deg)": -143.9124845461809,
        "Mean Anomaly(deg)": 114.4794112924746,
        "RAAN(deg)": 189.9865119779857,
        "Satellite Name": "Starlink Shell 1 842",
        "Satellite Number": 842,
        "Semi-Major Axis(m)": 6931778.249405717,
        "Time(s)": 260
    },
    {
        "Altitude(m)": 558373.6546410307,
        "Argument of Periapsis(deg)": 0.009411618946803396,
        "Eccentricity": 0.0,
        "Inclination(deg)": 53.0,
        "Latitude(deg)": 46.45590747868767,
        "Longitude(deg)": -143.15865000468892,
        "Mean Anomaly(deg)": 115.10624249603126,
        "RAAN(deg)": 189.98599320790825,
        "Satellite Name": "Starlink Shell 1 842",
        "Satellite Number": 842,
        "Semi-Major Axis(m)": 6931778.249405717,
        "Time(s)": 270
    },
    {
        "Altitude(m)": 558303.0733513593,
        "Argument of Periapsis(deg)": 0.009760197426314633,
        "Eccentricity": 0.0,
        "Inclination(deg)": 53.0,
        "Latitude(deg)": 46.144851943590105,
        "Longitude(deg)": -142.4137317370493,
        "Mean Anomaly(deg)": 115.73307369958803,
        "RAAN(deg)": 189.98547443783076,
        "Satellite Name": "Starlink Shell 1 842",
        "Satellite Number": 842,
        "Semi-Major Axis(m)": 6931778.249405717,
        "Time(s)": 280
    },
    {
        "Altitude(m)": 558231.3981799025,
        "Argument of Periapsis(deg)": 0.01010877590582587,
        "Eccentricity": 0.0,
        "Inclination(deg)": 53.0,
        "Latitude(deg)": 45.82843406626539,
        "Longitude(deg)": -141.6776872800475,
        "Mean Anomaly(deg)": 116.35990490314468,
        "RAAN(deg)": 189.98495566775333,
        "Satellite Name": "Starlink Shell 1 842",
        "Satellite Number": 842,
        "Semi-Major Axis(m)": 6931778.249405717,
        "Time(s)": 290
    },
    {
        "Altitude(m)": 558158.6737054193,
        "Argument of Periapsis(deg)": 0.010457354385337106,
        "Eccentricity": 0.0,
        "Inclination(deg)": 53.0,
        "Latitude(deg)": 45.50677131973943,
        "Longitude(deg)": -140.95046573842853,
        "Mean Anomaly(deg)": 116.98673610670144,
        "RAAN(deg)": 189.9844368976758,
        "Satellite Name": "Starlink Shell 1 842",
        "Satellite Number": 842,
        "Semi-Major Axis(m)": 6931778.249405717,
        "Time(s)": 300
    },
    {
        "Altitude(m)": 558084.9452454692,
        "Argument of Periapsis(deg)": 0.010805932864848343,
        "Eccentricity": 0.0,
        "Inclination(deg)": 53.0,
        "Latitude(deg)": 45.17997979038527,
        "Longitude(deg)": -140.23200932132994,
        "Mean Anomaly(deg)": 117.61356731025822,
        "RAAN(deg)": 189.98391812759837,
        "Satellite Name": "Starlink Shell 1 842",
        "Satellite Number": 842,
        "Semi-Major Axis(m)": 6931778.249405717,
        "Time(s)": 310
    },
    {
        "Altitude(m)": 558010.2588338332,
        "Argument of Periapsis(deg)": 0.01115451134435958,
        "Eccentricity": 0.0,
        "Inclination(deg)": 53.0,
        "Latitude(deg)": 44.848174096976784,
        "Longitude(deg)": -139.52225335325227,
        "Mean Anomaly(deg)": 118.24039851381487,
        "RAAN(deg)": 189.98339935752085,
        "Satellite Name": "Starlink Shell 1 842",
        "Satellite Number": 842,
        "Semi-Major Axis(m)": 6931778.249405717,
        "Time(s)": 320
    },
    {
        "Altitude(m)": 557934.6611975617,
        "Argument of Periapsis(deg)": 0.011503089823870818,
        "Eccentricity": 0.0,
        "Inclination(deg)": 53.0,
        "Latitude(deg)": 44.51146731867758,
        "Longitude(deg)": -138.82112627095012,
        "Mean Anomaly(deg)": 118.86722971737159,
        "RAAN(deg)": 189.98288058744342,
        "Satellite Name": "Starlink Shell 1 842",
        "Satellite Number": 842,
        "Semi-Major Axis(m)": 6931778.249405717,
        "Time(s)": 330
    },
    {
        "Altitude(m)": 557858.1997336607,
        "Argument of Periapsis(deg)": 0.011851668303382053,
        "Eccentricity": 0.0,
        "Inclination(deg)": 53.0,
        "Latitude(deg)": 44.169970931558474,
        "Longitude(deg)": -138.12855111786885,
        "Mean Anomaly(deg)": 119.49406092092826,
        "RAAN(deg)": 189.98236181736596,
        "Satellite Name": "Starlink Shell 1 842",
        "Satellite Number": 842,
        "Semi-Major Axis(m)": 6931778.249405717,
        "Time(s)": 340
    },
    {
        "Altitude(m)": 557780.9224853809,
        "Argument of Periapsis(deg)": 0.012200246782893292,
        "Eccentricity": 0.0,
        "Inclination(deg)": 53.0,
        "Latitude(deg)": 43.823794753218245,
        "Longitude(deg)": -137.4444455093571,
        "Mean Anomaly(deg)": 120.12089212448504,
        "RAAN(deg)": 189.98184304728846,
        "Satellite Name": "Starlink Shell 1 842",
        "Satellite Number": 842,
        "Semi-Major Axis(m)": 6931778.249405717,
        "Time(s)": 350
    },
    {
        "Altitude(m)": 557702.8781182277,
        "Argument of Periapsis(deg)": 0.012548825262404526,
        "Eccentricity": 0.0,
        "Inclination(deg)": 53.0,
        "Latitude(deg)": 43.473046895083876,
        "Longitude(deg)": -136.76872158071097,
        "Mean Anomaly(deg)": 120.74772332804177,
        "RAAN(deg)": 189.981324277211,
        "Satellite Name": "Starlink Shell 1 842",
        "Satellite Number": 842,
        "Semi-Major Axis(m)": 6931778.249405717,
        "Time(s)": 360
    },
    {
        "Altitude(m)": 557624.1158955549,
        "Argument of Periapsis(deg)": 0.012897403741915765,
        "Eccentricity": 0.0,
        "Inclination(deg)": 53.0,
        "Latitude(deg)": 43.11783372196487,
        "Longitude(deg)": -136.10128743029813,
        "Mean Anomaly(deg)": 121.37455453159845,
        "RAAN(deg)": 189.98080550713354,
        "Satellite Name": "Starlink Shell 1 842",
        "Satellite Number": 842,
        "Semi-Major Axis(m)": 6931778.249405717,
        "Time(s)": 370
    }
]